start=new Date('2022-10-23T00:00:00.000Z').valueOf();
sats=[{"OBJECT_NAME":"STARLINK-2117","PERIAPSIS":"546.283","MEAN_MOTION":"15.06401617","MEAN_ANOMALY":"253.0377","NORAD_CAT_ID":"47395","FILE":"3629797","REF_FRAME":"TEME","APOAPSIS":"548.134","CENTER_NAME":"EARTH","RA_OF_ASC_NODE":"160.2480","TIME_SYSTEM":"UTC","ECCENTRICITY":"0.00013360","CLASSIFICATION_TYPE":"U","TLE_LINE2":"2 47395  53.0542 160.2480 0001336 107.0759 253.0377 15.06401617 97646","BSTAR":"0.00000712400000","EPOCH":"2022-10-22T21:59:43.548864","REV_AT_EPOCH":"9764","RCS_SIZE":"LARGE","GP_ID":"215925653","COUNTRY_CODE":"US","DECAY_DATE":null,"SITE":"AFETR","OBJECT_TYPE":"PAYLOAD","INCLINATION":"53.0542","ARG_OF_PERICENTER":"107.0759","LAUNCH_DATE":"2021-01-20","SEMIMAJOR_AXIS":"6925.344","TLE_LINE1":"1 47395U 21005AY  22295.91647626 -.00000175  00000-0  71240-5 0  9990","ELEMENT_SET_NO":"999","PERIOD":"95.592","EPHEMERIS_TYPE":"0","MEAN_MOTION_DDOT":"0.0000000000000","MEAN_ELEMENT_THEORY":"SGP4","OBJECT_ID":"2021-005AY","MEAN_MOTION_DOT":"-0.00000175"},{"TLE_LINE1":"1 47396U 21005AZ  22295.82709560  .00000648  00000-0  62409-4 0  9997","ELEMENT_SET_NO":"999","SEMIMAJOR_AXIS":"6925.376","EPHEMERIS_TYPE":"0","PERIOD":"95.593","LAUNCH_DATE":"2021-01-20","ARG_OF_PERICENTER":"114.0848","INCLINATION":"53.0549","MEAN_ELEMENT_THEORY":"SGP4","OBJECT_ID":"2021-005AZ","MEAN_MOTION_DOT":"0.00000648","MEAN_MOTION_DDOT":"0.0000000000000","CENTER_NAME":"EARTH","APOAPSIS":"548.257","FILE":"3629797","NORAD_CAT_ID":"47396","MEAN_ANOMALY":"246.0294","MEAN_MOTION":"15.06391068","PERIAPSIS":"546.225","OBJECT_NAME":"STARLINK-2118","REF_FRAME":"TEME","RCS_SIZE":"LARGE","REV_AT_EPOCH":"9749","EPOCH":"2022-10-22T19:51:01.059840","OBJECT_TYPE":"PAYLOAD","DECAY_DATE":null,"SITE":"AFETR","COUNTRY_CODE":"US","GP_ID":"215925403","CLASSIFICATION_TYPE":"U","ECCENTRICITY":"0.00014670","RA_OF_ASC_NODE":"170.6491","TIME_SYSTEM":"UTC","BSTAR":"0.00006240900000","TLE_LINE2":"2 47396  53.0549 170.6491 0001467 114.0848 246.0294 15.06391068 97494"},{"APOAPSIS":"548.269","CENTER_NAME":"EARTH","REF_FRAME":"TEME","OBJECT_NAME":"STARLINK-2119","PERIAPSIS":"546.178","MEAN_ANOMALY":"267.2537","MEAN_MOTION":"15.06396775","NORAD_CAT_ID":"47397","FILE":"3629797","COUNTRY_CODE":"US","GP_ID":"215924151","OBJECT_TYPE":"PAYLOAD","DECAY_DATE":null,"SITE":"AFETR","EPOCH":"2022-10-22T18:11:29.845248","REV_AT_EPOCH":"9706","RCS_SIZE":"LARGE","TLE_LINE2":"2 47397  53.0546 200.9444 0001510  92.8625 267.2537 15.06396775 97060","BSTAR":"-0.00001165500000","TIME_SYSTEM":"UTC","RA_OF_ASC_NODE":"200.9444","ECCENTRICITY":"0.00015100","CLASSIFICATION_TYPE":"U","PERIOD":"95.592","EPHEMERIS_TYPE":"0","SEMIMAJOR_AXIS":"6925.358","TLE_LINE1":"1 47397U 21005BA  22295.75798432 -.00000455  00000-0 -11655-4 0  9991","ELEMENT_SET_NO":"999","INCLINATION":"53.0546","ARG_OF_PERICENTER":"92.8625","LAUNCH_DATE":"2021-01-20","MEAN_MOTION_DOT":"-0.00000455","OBJECT_ID":"2021-005BA","MEAN_ELEMENT_THEORY":"SGP4","MEAN_MOTION_DDOT":"0.0000000000000"},{"BSTAR":"0.00002710200000","TLE_LINE2":"2 47398  53.0546 170.4932 0001359  99.4521 260.6622 15.06396277 97499","RA_OF_ASC_NODE":"170.4932","TIME_SYSTEM":"UTC","CLASSIFICATION_TYPE":"U","ECCENTRICITY":"0.00013590","COUNTRY_CODE":"US","GP_ID":"215924902","SITE":"AFETR","DECAY_DATE":null,"OBJECT_TYPE":"PAYLOAD","EPOCH":"2022-10-22T20:44:05.533152","RCS_SIZE":"LARGE","REV_AT_EPOCH":"9749","REF_FRAME":"TEME","MEAN_ANOMALY":"260.6622","MEAN_MOTION":"15.06396277","OBJECT_NAME":"STARLINK-2120","PERIAPSIS":"546.284","FILE":"3629797","NORAD_CAT_ID":"47398","CENTER_NAME":"EARTH","APOAPSIS":"548.166","MEAN_MOTION_DDOT":"0.0000000000000","OBJECT_ID":"2021-005BB","MEAN_MOTION_DOT":"0.00000122","MEAN_ELEMENT_THEORY":"SGP4","INCLINATION":"53.0546","LAUNCH_DATE":"2021-01-20","ARG_OF_PERICENTER":"99.4521","PERIOD":"95.592","EPHEMERIS_TYPE":"0","SEMIMAJOR_AXIS":"6925.360","ELEMENT_SET_NO":"999","TLE_LINE1":"1 47398U 21005BB  22295.86395293  .00000122  00000-0  27102-4 0  9995"},{"PERIAPSIS":"546.201","OBJECT_NAME":"STARLINK-2121","MEAN_ANOMALY":"257.3867","MEAN_MOTION":"15.06403177","NORAD_CAT_ID":"47399","FILE":"3629797","REF_FRAME":"TEME","APOAPSIS":"548.207","CENTER_NAME":"EARTH","TIME_SYSTEM":"UTC","RA_OF_ASC_NODE":"180.8582","ECCENTRICITY":"0.00014480","CLASSIFICATION_TYPE":"U","TLE_LINE2":"2 47399  53.0544 180.8582 0001448 102.7284 257.3867 15.06403177 97343","BSTAR":"0.00004789000000","EPOCH":"2022-10-22T20:00:20.874816","RCS_SIZE":"LARGE","REV_AT_EPOCH":"9734","GP_ID":"215925153","COUNTRY_CODE":"US","OBJECT_TYPE":"PAYLOAD","DECAY_DATE":null,"SITE":"AFETR","INCLINATION":"53.0544","ARG_OF_PERICENTER":"102.7284","LAUNCH_DATE":"2021-01-20","SEMIMAJOR_AXIS":"6925.339","ELEMENT_SET_NO":"999","TLE_LINE1":"1 47399U 21005BC  22295.83357494  .00000432  00000-0  47890-4 0  9994","PERIOD":"95.592","EPHEMERIS_TYPE":"0","MEAN_MOTION_DDOT":"0.0000000000000","MEAN_ELEMENT_THEORY":"SGP4","OBJECT_ID":"2021-005BC","MEAN_MOTION_DOT":"0.00000432"},{"CENTER_NAME":"EARTH","APOAPSIS":"548.008","REF_FRAME":"TEME","PERIAPSIS":"546.454","OBJECT_NAME":"STARLINK-2122","MEAN_ANOMALY":"256.6479","MEAN_MOTION":"15.06394170","NORAD_CAT_ID":"47400","FILE":"3629710","GP_ID":"215901858","COUNTRY_CODE":"US","OBJECT_TYPE":"PAYLOAD","DECAY_DATE":null,"SITE":"AFETR","EPOCH":"2022-10-22T20:40:06.627648","RCS_SIZE":"LARGE","REV_AT_EPOCH":"9763","TLE_LINE2":"2 47400  53.0548 160.5064 0001122 103.4635 256.6479 15.06394170 97632","BSTAR":"0.00004909800000","TIME_SYSTEM":"UTC","RA_OF_ASC_NODE":"160.5064","ECCENTRICITY":"0.00011220","CLASSIFICATION_TYPE":"U","PERIOD":"95.593","EPHEMERIS_TYPE":"0","SEMIMAJOR_AXIS":"6925.366","TLE_LINE1":"1 47400U 21005BD  22295.86118782  .00000450  00000-0  49098-4 0  9997","ELEMENT_SET_NO":"999","INCLINATION":"53.0548","ARG_OF_PERICENTER":"103.4635","LAUNCH_DATE":"2021-01-20","OBJECT_ID":"2021-005BD","MEAN_MOTION_DOT":"0.00000450","MEAN_ELEMENT_THEORY":"SGP4","MEAN_MOTION_DDOT":"0.0000000000000"},{"ARG_OF_PERICENTER":"97.7737","LAUNCH_DATE":"2021-01-20","INCLINATION":"53.0531","EPHEMERIS_TYPE":"0","PERIOD":"95.593","TLE_LINE1":"1 47401U 21005BE  22295.87870168 -.00001030  00000-0 -50277-4 0  9990","ELEMENT_SET_NO":"999","SEMIMAJOR_AXIS":"6925.370","MEAN_MOTION_DDOT":"0.0000000000000","OBJECT_ID":"2021-005BE","MEAN_MOTION_DOT":"-0.00001030","MEAN_ELEMENT_THEORY":"SGP4","REF_FRAME":"TEME","NORAD_CAT_ID":"47401","FILE":"3629797","PERIAPSIS":"546.252","OBJECT_NAME":"STARLINK-2123","MEAN_ANOMALY":"262.3413","MEAN_MOTION":"15.06392841","CENTER_NAME":"EARTH","APOAPSIS":"548.219","TLE_LINE2":"2 47401  53.0531 170.4234 0001420  97.7737 262.3413 15.06392841 97504","BSTAR":"-0.00005027700000","ECCENTRICITY":"0.00014200","CLASSIFICATION_TYPE":"U","TIME_SYSTEM":"UTC","RA_OF_ASC_NODE":"170.4234","DECAY_DATE":null,"OBJECT_TYPE":"PAYLOAD","SITE":"AFETR","COUNTRY_CODE":"US","GP_ID":"215924652","REV_AT_EPOCH":"9750","RCS_SIZE":"LARGE","EPOCH":"2022-10-22T21:05:19.825152"},{"INCLINATION":"53.0537","LAUNCH_DATE":"2021-01-20","ARG_OF_PERICENTER":"96.1710","PERIOD":"95.592","EPHEMERIS_TYPE":"0","SEMIMAJOR_AXIS":"6925.343","TLE_LINE1":"1 47402U 21005BF  22295.83076947 -.00002158  00000-0 -12604-3 0  9993","ELEMENT_SET_NO":"999","MEAN_MOTION_DDOT":"0.0000000000000","OBJECT_ID":"2021-005BF","MEAN_MOTION_DOT":"-0.00002158","MEAN_ELEMENT_THEORY":"SGP4","REF_FRAME":"TEME","MEAN_MOTION":"15.06401956","MEAN_ANOMALY":"263.9453","OBJECT_NAME":"STARLINK-2124","PERIAPSIS":"546.146","FILE":"3629797","NORAD_CAT_ID":"47402","APOAPSIS":"548.269","CENTER_NAME":"EARTH","BSTAR":"-0.00012604000000","TLE_LINE2":"2 47402  53.0537 170.6313 0001533  96.1710 263.9453 15.06401956 97497","TIME_SYSTEM":"UTC","RA_OF_ASC_NODE":"170.6313","CLASSIFICATION_TYPE":"U","ECCENTRICITY":"0.00015330","COUNTRY_CODE":"US","GP_ID":"215924402","OBJECT_TYPE":"PAYLOAD","DECAY_DATE":null,"SITE":"AFETR","EPOCH":"2022-10-22T19:56:18.482208","REV_AT_EPOCH":"9749","RCS_SIZE":"LARGE"},{"TLE_LINE2":"2 47403  53.0528 170.6003 0001385 108.6506 251.4633 15.06394926 97491","BSTAR":"0.00005021900000","TIME_SYSTEM":"UTC","RA_OF_ASC_NODE":"170.6003","ECCENTRICITY":"0.00013850","CLASSIFICATION_TYPE":"U","GP_ID":"215925654","COUNTRY_CODE":"US","DECAY_DATE":null,"OBJECT_TYPE":"PAYLOAD","SITE":"AFETR","EPOCH":"2022-10-22T20:06:56.336256","RCS_SIZE":"LARGE","REV_AT_EPOCH":"9749","REF_FRAME":"TEME","OBJECT_NAME":"STARLINK-2127","PERIAPSIS":"546.270","MEAN_ANOMALY":"251.4633","MEAN_MOTION":"15.06394926","NORAD_CAT_ID":"47403","FILE":"3629797","CENTER_NAME":"EARTH","APOAPSIS":"548.188","MEAN_MOTION_DDOT":"0.0000000000000","MEAN_MOTION_DOT":"0.00000467","OBJECT_ID":"2021-005BG","MEAN_ELEMENT_THEORY":"SGP4","INCLINATION":"53.0528","ARG_OF_PERICENTER":"108.6506","LAUNCH_DATE":"2021-01-20","PERIOD":"95.592","EPHEMERIS_TYPE":"0","SEMIMAJOR_AXIS":"6925.364","TLE_LINE1":"1 47403U 21005BG  22295.83815204  .00000467  00000-0  50219-4 0  9995","ELEMENT_SET_NO":"999"},{"INCLINATION":"53.0554","LAUNCH_DATE":"2021-01-20","ARG_OF_PERICENTER":"118.7434","SEMIMAJOR_AXIS":"6925.342","ELEMENT_SET_NO":"999","TLE_LINE1":"1 47404U 21005BH  22295.83446997  .00002583  00000-0  19221-3 0  9993","PERIOD":"95.592","EPHEMERIS_TYPE":"0","MEAN_MOTION_DDOT":"0.0000000000000","MEAN_ELEMENT_THEORY":"SGP4","OBJECT_ID":"2021-005BH","MEAN_MOTION_DOT":"0.00002583","MEAN_ANOMALY":"241.3718","MEAN_MOTION":"15.06402051","OBJECT_NAME":"STARLINK-2128","PERIAPSIS":"546.081","FILE":"3629797","NORAD_CAT_ID":"47404","REF_FRAME":"TEME","CENTER_NAME":"EARTH","APOAPSIS":"548.333","TIME_SYSTEM":"UTC","RA_OF_ASC_NODE":"170.6240","CLASSIFICATION_TYPE":"U","ECCENTRICITY":"0.00016260","BSTAR":"0.00019221000000","TLE_LINE2":"2 47404  53.0554 170.6240 0001626 118.7434 241.3718 15.06402051 97495","EPOCH":"2022-10-22T20:01:38.205408","RCS_SIZE":"LARGE","REV_AT_EPOCH":"9749","GP_ID":"215925404","COUNTRY_CODE":"US","DECAY_DATE":null,"SITE":"AFETR","OBJECT_TYPE":"PAYLOAD"}];
